start=new Date('2023-03-09T00:00:00.000Z').valueOf();
sats=[{"GP_ID":"227721133","RA_OF_ASC_NODE":"265.6430","APOAPSIS":"548.603","SEMIMAJOR_AXIS":"6925.344","PERIAPSIS":"545.815","BSTAR":"0.00045496000000","TLE_LINE2":"2 47555  53.0514 265.6430 0002013  85.0241 275.0978 15.06401410115476","CENTER_NAME":"EARTH","SITE":"AFETR","PERIOD":"95.592","MEAN_MOTION_DDOT":"0.0000000000000","DECAY_DATE":null,"LAUNCH_DATE":"2021-02-04","FILE":"3855077","ECCENTRICITY":"0.00020130","ARG_OF_PERICENTER":"85.0241","INCLINATION":"53.0514","TLE_LINE1":"1 47555U 21009H   23067.82333287  .00006502  00000-0  45496-3 0  9996","CLASSIFICATION_TYPE":"U","REV_AT_EPOCH":"11547","EPOCH":"2023-03-08T19:45:35.959968","OBJECT_TYPE":"PAYLOAD","NORAD_CAT_ID":"47555","MEAN_ELEMENT_THEORY":"SGP4","COUNTRY_CODE":"US","OBJECT_ID":"2021-009H","MEAN_MOTION":"15.06401410","EPHEMERIS_TYPE":"0","REF_FRAME":"TEME","OBJECT_NAME":"STARLINK-1954","MEAN_MOTION_DOT":"0.00006502","MEAN_ANOMALY":"275.0978","ELEMENT_SET_NO":"999","TIME_SYSTEM":"UTC","RCS_SIZE":"LARGE"},{"CENTER_NAME":"EARTH","TLE_LINE2":"2 47556  53.0485 285.4814 0000987 102.8919 257.2180 15.06398320115199","BSTAR":"0.00073062000000","PERIAPSIS":"546.535","SEMIMAJOR_AXIS":"6925.354","APOAPSIS":"547.902","GP_ID":"227719886","RA_OF_ASC_NODE":"285.4814","FILE":"3855077","LAUNCH_DATE":"2021-02-04","DECAY_DATE":null,"PERIOD":"95.592","MEAN_MOTION_DDOT":"0.0000000000000","SITE":"AFETR","MEAN_ELEMENT_THEORY":"SGP4","NORAD_CAT_ID":"47556","OBJECT_TYPE":"PAYLOAD","EPOCH":"2023-03-08T20:36:01.229184","CLASSIFICATION_TYPE":"U","REV_AT_EPOCH":"11519","TLE_LINE1":"1 47556U 21009J   23067.85834756  .00010617  00000-0  73062-3 0  9999","INCLINATION":"53.0485","ARG_OF_PERICENTER":"102.8919","ECCENTRICITY":"0.00009870","RCS_SIZE":"LARGE","TIME_SYSTEM":"UTC","ELEMENT_SET_NO":"999","MEAN_ANOMALY":"257.2180","MEAN_MOTION_DOT":"0.00010617","OBJECT_NAME":"STARLINK-1955","REF_FRAME":"TEME","EPHEMERIS_TYPE":"0","MEAN_MOTION":"15.06398320","OBJECT_ID":"2021-009J","COUNTRY_CODE":"US"},{"EPOCH":"2023-03-08T21:18:28.932768","NORAD_CAT_ID":"47557","MEAN_ELEMENT_THEORY":"SGP4","OBJECT_TYPE":"PAYLOAD","ECCENTRICITY":"0.00009250","ARG_OF_PERICENTER":"94.9296","CLASSIFICATION_TYPE":"U","REV_AT_EPOCH":"11520","INCLINATION":"53.0493","TLE_LINE1":"1 47557U 21009K   23067.88783487  .00004773  00000-0  33907-3 0  9997","MEAN_ANOMALY":"265.1799","OBJECT_NAME":"STARLINK-1956","MEAN_MOTION_DOT":"0.00004773","TIME_SYSTEM":"UTC","RCS_SIZE":"LARGE","ELEMENT_SET_NO":"999","OBJECT_ID":"2021-009K","COUNTRY_CODE":"US","EPHEMERIS_TYPE":"0","REF_FRAME":"TEME","MEAN_MOTION":"15.06401926","TLE_LINE2":"2 47557  53.0493 285.3550 0000925  94.9296 265.1799 15.06401926115209","CENTER_NAME":"EARTH","SEMIMAJOR_AXIS":"6925.343","PERIAPSIS":"546.567","BSTAR":"0.00033907000000","RA_OF_ASC_NODE":"285.3550","GP_ID":"227720637","APOAPSIS":"547.848","PERIOD":"95.592","MEAN_MOTION_DDOT":"0.0000000000000","LAUNCH_DATE":"2021-02-04","FILE":"3855077","DECAY_DATE":null,"SITE":"AFETR"},{"REV_AT_EPOCH":"11560","CLASSIFICATION_TYPE":"U","TLE_LINE1":"1 47558U 21009L   23067.80213776  .00006544  00000-0  45785-3 0  9994","INCLINATION":"53.0506","ARG_OF_PERICENTER":"87.5941","ECCENTRICITY":"0.00023020","MEAN_ELEMENT_THEORY":"SGP4","NORAD_CAT_ID":"47558","OBJECT_TYPE":"PAYLOAD","EPOCH":"2023-03-08T19:15:04.702464","REF_FRAME":"TEME","EPHEMERIS_TYPE":"0","MEAN_MOTION":"15.06395472","OBJECT_ID":"2021-009L","COUNTRY_CODE":"US","RCS_SIZE":"LARGE","TIME_SYSTEM":"UTC","ELEMENT_SET_NO":"999","MEAN_ANOMALY":"272.5311","OBJECT_NAME":"STARLINK-1957","MEAN_MOTION_DOT":"0.00006544","BSTAR":"0.00045785000000","PERIAPSIS":"545.633","SEMIMAJOR_AXIS":"6925.362","APOAPSIS":"548.822","GP_ID":"227721387","RA_OF_ASC_NODE":"255.7400","CENTER_NAME":"EARTH","TLE_LINE2":"2 47558  53.0506 255.7400 0002302  87.5941 272.5311 15.06395472115600","SITE":"AFETR","FILE":"3855077","LAUNCH_DATE":"2021-02-04","DECAY_DATE":null,"PERIOD":"95.592","MEAN_MOTION_DDOT":"0.0000000000000"},{"MEAN_MOTION":"15.06405858","EPHEMERIS_TYPE":"0","REF_FRAME":"TEME","COUNTRY_CODE":"US","OBJECT_ID":"2021-009M","ELEMENT_SET_NO":"999","TIME_SYSTEM":"UTC","RCS_SIZE":"LARGE","MEAN_MOTION_DOT":"0.00005568","OBJECT_NAME":"STARLINK-1958","MEAN_ANOMALY":"271.8423","INCLINATION":"53.0501","TLE_LINE1":"1 47559U 21009M   23067.89889192  .00005568  00000-0  39233-3 0  9991","REV_AT_EPOCH":"11576","CLASSIFICATION_TYPE":"U","ARG_OF_PERICENTER":"88.2736","ECCENTRICITY":"0.00014870","OBJECT_TYPE":"PAYLOAD","NORAD_CAT_ID":"47559","MEAN_ELEMENT_THEORY":"SGP4","EPOCH":"2023-03-08T21:34:24.261888","SITE":"AFETR","DECAY_DATE":null,"LAUNCH_DATE":"2021-02-04","FILE":"3855077","PERIOD":"95.592","MEAN_MOTION_DDOT":"0.0000000000000","RA_OF_ASC_NODE":"245.3035","GP_ID":"227721634","APOAPSIS":"548.225","SEMIMAJOR_AXIS":"6925.331","BSTAR":"0.00039233000000","PERIAPSIS":"546.166","CENTER_NAME":"EARTH","TLE_LINE2":"2 47559  53.0501 245.3035 0001487  88.2736 271.8423 15.06405858115761"},{"SITE":"AFETR","PERIOD":"95.592","MEAN_MOTION_DDOT":"0.0000000000000","DECAY_DATE":null,"LAUNCH_DATE":"2021-02-04","FILE":"3855077","GP_ID":"227720387","RA_OF_ASC_NODE":"245.3271","APOAPSIS":"548.004","SEMIMAJOR_AXIS":"6925.353","BSTAR":"0.00007922400000","PERIAPSIS":"546.431","TLE_LINE2":"2 47560  53.0529 245.3271 0001136  90.0968 270.0151 15.06398625115766","CENTER_NAME":"EARTH","COUNTRY_CODE":"US","OBJECT_ID":"2021-009N","MEAN_MOTION":"15.06398625","EPHEMERIS_TYPE":"0","REF_FRAME":"TEME","MEAN_MOTION_DOT":"0.00000899","OBJECT_NAME":"STARLINK-1959","MEAN_ANOMALY":"270.0151","ELEMENT_SET_NO":"999","TIME_SYSTEM":"UTC","RCS_SIZE":"LARGE","ECCENTRICITY":"0.00011360","ARG_OF_PERICENTER":"90.0968","INCLINATION":"53.0529","TLE_LINE1":"1 47560U 21009N   23067.89057310  .00000899  00000-0  79224-4 0  9999","CLASSIFICATION_TYPE":"U","REV_AT_EPOCH":"11576","EPOCH":"2023-03-08T21:22:25.515840","OBJECT_TYPE":"PAYLOAD","NORAD_CAT_ID":"47560","MEAN_ELEMENT_THEORY":"SGP4"},{"TLE_LINE2":"2 47561  53.0446 265.6904 0002122  93.4905 266.6326 15.06420971115470","CENTER_NAME":"EARTH","SEMIMAJOR_AXIS":"6925.284","PERIAPSIS":"545.680","BSTAR":"0.00039400000000","RA_OF_ASC_NODE":"265.6904","GP_ID":"227720137","APOAPSIS":"548.619","PERIOD":"95.591","MEAN_MOTION_DDOT":"0.0000000000000","LAUNCH_DATE":"2021-02-04","FILE":"3855077","DECAY_DATE":null,"SITE":"AFETR","EPOCH":"2023-03-08T19:29:39.445440","NORAD_CAT_ID":"47561","MEAN_ELEMENT_THEORY":"SGP4","OBJECT_TYPE":"PAYLOAD","ECCENTRICITY":"0.00021220","ARG_OF_PERICENTER":"93.4905","CLASSIFICATION_TYPE":"U","REV_AT_EPOCH":"11547","INCLINATION":"53.0446","TLE_LINE1":"1 47561U 21009P   23067.81226210  .00005595  00000-0  39400-3 0  9998","MEAN_ANOMALY":"266.6326","OBJECT_NAME":"STARLINK-1960","MEAN_MOTION_DOT":"0.00005595","TIME_SYSTEM":"UTC","RCS_SIZE":"LARGE","ELEMENT_SET_NO":"999","OBJECT_ID":"2021-009P","COUNTRY_CODE":"US","EPHEMERIS_TYPE":"0","REF_FRAME":"TEME","MEAN_MOTION":"15.06420971"},{"EPOCH":"2023-03-08T23:01:58.993248","OBJECT_TYPE":"PAYLOAD","MEAN_ELEMENT_THEORY":"SGP4","NORAD_CAT_ID":"47562","ECCENTRICITY":"0.00011570","ARG_OF_PERICENTER":"75.2557","TLE_LINE1":"1 47562U 21009Q   23067.95971057  .00008209  00000-0  56926-3 0  9997","INCLINATION":"53.0499","REV_AT_EPOCH":"11609","CLASSIFICATION_TYPE":"U","MEAN_MOTION_DOT":"0.00008209","OBJECT_NAME":"STARLINK-1961","MEAN_ANOMALY":"284.8560","ELEMENT_SET_NO":"999","RCS_SIZE":"LARGE","TIME_SYSTEM":"UTC","COUNTRY_CODE":"US","OBJECT_ID":"2021-009Q","MEAN_MOTION":"15.06407445","REF_FRAME":"TEME","EPHEMERIS_TYPE":"0","TLE_LINE2":"2 47562  53.0499 265.0322 0001157  75.2557 284.8560 15.06407445116097","CENTER_NAME":"EARTH","APOAPSIS":"547.992","GP_ID":"227697104","RA_OF_ASC_NODE":"265.0322","PERIAPSIS":"546.389","BSTAR":"0.00056926000000","SEMIMAJOR_AXIS":"6925.326","MEAN_MOTION_DDOT":"0.0000000000000","PERIOD":"95.592","DECAY_DATE":null,"FILE":"3854974","LAUNCH_DATE":"2021-02-04","SITE":"AFETR"},{"SITE":"AFETR","LAUNCH_DATE":"2021-02-04","FILE":"3855077","DECAY_DATE":null,"MEAN_MOTION_DDOT":"0.0000000000000","PERIOD":"95.592","SEMIMAJOR_AXIS":"6925.353","PERIAPSIS":"546.180","BSTAR":"0.00037580000000","RA_OF_ASC_NODE":"265.5319","GP_ID":"227721134","APOAPSIS":"548.255","CENTER_NAME":"EARTH","TLE_LINE2":"2 47563  53.0566 265.5319 0001498  94.5159 265.6001 15.06398607115471","EPHEMERIS_TYPE":"0","REF_FRAME":"TEME","MEAN_MOTION":"15.06398607","OBJECT_ID":"2021-009R","COUNTRY_CODE":"US","TIME_SYSTEM":"UTC","RCS_SIZE":"LARGE","ELEMENT_SET_NO":"999","MEAN_ANOMALY":"265.6001","MEAN_MOTION_DOT":"0.00005320","OBJECT_NAME":"STARLINK-1962","CLASSIFICATION_TYPE":"U","REV_AT_EPOCH":"11547","INCLINATION":"53.0566","TLE_LINE1":"1 47563U 21009R   23067.84913176  .00005320  00000-0  37580-3 0  9990","ECCENTRICITY":"0.00014980","ARG_OF_PERICENTER":"94.5159","NORAD_CAT_ID":"47563","MEAN_ELEMENT_THEORY":"SGP4","OBJECT_TYPE":"PAYLOAD","EPOCH":"2023-03-08T20:22:44.984064"},{"COUNTRY_CODE":"US","OBJECT_ID":"2021-009S","MEAN_MOTION":"15.06400917","EPHEMERIS_TYPE":"0","REF_FRAME":"TEME","MEAN_MOTION_DOT":"0.00002625","OBJECT_NAME":"STARLINK-1963","MEAN_ANOMALY":"281.3000","ELEMENT_SET_NO":"999","TIME_SYSTEM":"UTC","RCS_SIZE":"LARGE","ARG_OF_PERICENTER":"78.8158","ECCENTRICITY":"0.00015090","INCLINATION":"53.0504","TLE_LINE1":"1 47564U 21009S   23067.91640178  .00002625  00000-0  19503-3 0  9998","REV_AT_EPOCH":"11562","CLASSIFICATION_TYPE":"U","EPOCH":"2023-03-08T21:59:37.113792","OBJECT_TYPE":"PAYLOAD","NORAD_CAT_ID":"47564","MEAN_ELEMENT_THEORY":"SGP4","SITE":"AFETR","PERIOD":"95.592","MEAN_MOTION_DDOT":"0.0000000000000","DECAY_DATE":null,"LAUNCH_DATE":"2021-02-04","FILE":"3855077","GP_ID":"227719887","RA_OF_ASC_NODE":"255.2267","APOAPSIS":"548.256","SEMIMAJOR_AXIS":"6925.346","BSTAR":"0.00019503000000","PERIAPSIS":"546.166","TLE_LINE2":"2 47564  53.0504 255.2267 0001509  78.8158 281.3000 15.06400917115628","CENTER_NAME":"EARTH"}];
